line1,line2,validFromUtcTime
1 00000U 00000E   26001.00000000  .00000000  00000-0  27772-4 0    01,2 00000  88.8750  60.3318 0010018 270.2351 262.3385 13.55312558    06,2026-01-01T00:00:00Z
1 00000U 00000E   26002.00000000  .00000000  00000-0  27772-4 0    02,2 00000  88.8751  60.2174 0010080 267.5515 101.3150 13.55348998    05,2026-01-02T00:00:00Z
